start=new Date('2021-11-08T00:00:00.000Z').valueOf();
sats=[{"DECAY_DATE":null,"SEMIMAJOR_AXIS":"6925.371","MEAN_ELEMENT_THEORY":"SGP4","LAUNCH_DATE":"2020-01-29","EPHEMERIS_TYPE":"0","ARG_OF_PERICENTER":"72.5871","REF_FRAME":"TEME","CLASSIFICATION_TYPE":"U","ECCENTRICITY":"0.00017290","TLE_LINE1":"1 45085U 20006AT  21311.85389249 -.00000474  00000-0 -12899-4 0  9996","SITE":"AFETR","GP_ID":"189213888","ELEMENT_SET_NO":"999","TIME_SYSTEM":"UTC","RA_OF_ASC_NODE":"152.2364","NORAD_CAT_ID":"45085","INCLINATION":"53.0539","OBJECT_NAME":"STARLINK-1179","FILE":"3207836","TLE_LINE2":"2 45085  53.0539 152.2364 0001729  72.5871 287.5307 15.06392655 98451","COUNTRY_CODE":"US","MEAN_MOTION":"15.06392655","PERIAPSIS":"546.039","PERIOD":"95.593","REV_AT_EPOCH":"9845","MEAN_MOTION_DOT":"-0.00000474","RCS_SIZE":"LARGE","OBJECT_ID":"2020-006AT","MEAN_MOTION_DDOT":"0.0000000000000","CENTER_NAME":"EARTH","EPOCH":"2021-11-07T20:29:36.311136","BSTAR":"-0.00001289900000","OBJECT_TYPE":"PAYLOAD","MEAN_ANOMALY":"287.5307","APOAPSIS":"548.433"},{"EPHEMERIS_TYPE":"0","ARG_OF_PERICENTER":"82.0272","LAUNCH_DATE":"2020-01-29","CLASSIFICATION_TYPE":"U","REF_FRAME":"TEME","SEMIMAJOR_AXIS":"6922.862","DECAY_DATE":null,"MEAN_ELEMENT_THEORY":"SGP4","TLE_LINE1":"1 45086U 20006AU  21311.88512764  .00002056  00000-0  15362-3 0  9993","SITE":"AFETR","ECCENTRICITY":"0.00025490","TLE_LINE2":"2 45086  53.0015 149.9544 0002549  82.0272 278.1006 15.07211660 98387","PERIAPSIS":"542.962","MEAN_MOTION":"15.07211660","COUNTRY_CODE":"US","NORAD_CAT_ID":"45086","RA_OF_ASC_NODE":"149.9544","TIME_SYSTEM":"UTC","GP_ID":"189214639","ELEMENT_SET_NO":"999","FILE":"3207836","OBJECT_NAME":"STARLINK-1181","INCLINATION":"53.0015","EPOCH":"2021-11-07T21:14:35.028096","BSTAR":"0.00015362000000","MEAN_MOTION_DDOT":"0.0000000000000","CENTER_NAME":"EARTH","MEAN_ANOMALY":"278.1006","OBJECT_TYPE":"PAYLOAD","APOAPSIS":"546.492","REV_AT_EPOCH":"9838","PERIOD":"95.541","OBJECT_ID":"2020-006AU","RCS_SIZE":"LARGE","MEAN_MOTION_DOT":"0.00002056"},{"MEAN_ELEMENT_THEORY":"SGP4","DECAY_DATE":null,"SEMIMAJOR_AXIS":"6925.389","REF_FRAME":"TEME","CLASSIFICATION_TYPE":"U","LAUNCH_DATE":"2020-01-29","EPHEMERIS_TYPE":"0","ARG_OF_PERICENTER":"79.6765","ECCENTRICITY":"0.00017980","SITE":"AFETR","TLE_LINE1":"1 45087U 20006AV  21311.90548827 -.00001303  00000-0 -68584-4 0  9997","INCLINATION":"53.0526","OBJECT_NAME":"STARLINK-1185","FILE":"3207836","ELEMENT_SET_NO":"999","GP_ID":"189214884","TIME_SYSTEM":"UTC","RA_OF_ASC_NODE":"152.0070","NORAD_CAT_ID":"45087","COUNTRY_CODE":"US","MEAN_MOTION":"15.06386681","PERIAPSIS":"546.009","TLE_LINE2":"2 45087  53.0526 152.0070 0001798  79.6765 280.4427 15.06386681 98465","MEAN_MOTION_DOT":"-0.00001303","RCS_SIZE":"LARGE","OBJECT_ID":"2020-006AV","PERIOD":"95.593","REV_AT_EPOCH":"9846","OBJECT_TYPE":"PAYLOAD","APOAPSIS":"548.500","MEAN_ANOMALY":"280.4427","CENTER_NAME":"EARTH","MEAN_MOTION_DDOT":"0.0000000000000","EPOCH":"2021-11-07T21:43:54.186528","BSTAR":"-0.00006858400000"},{"BSTAR":"-0.00003750500000","EPOCH":"2021-11-07T20:40:12.464832","CENTER_NAME":"EARTH","MEAN_MOTION_DDOT":"0.0000000000000","MEAN_ANOMALY":"276.7310","OBJECT_TYPE":"PAYLOAD","APOAPSIS":"548.381","REV_AT_EPOCH":"9845","PERIOD":"95.593","OBJECT_ID":"2020-006AW","MEAN_MOTION_DOT":"-0.00000840","RCS_SIZE":"LARGE","TLE_LINE2":"2 45088  53.0539 152.2217 0001626  83.3864 276.7310 15.06386505 98450","PERIAPSIS":"546.129","COUNTRY_CODE":"US","MEAN_MOTION":"15.06386505","RA_OF_ASC_NODE":"152.2217","NORAD_CAT_ID":"45088","ELEMENT_SET_NO":"999","GP_ID":"189213138","TIME_SYSTEM":"UTC","INCLINATION":"53.0539","FILE":"3207836","OBJECT_NAME":"STARLINK-1183","TLE_LINE1":"1 45088U 20006AW  21311.86125538 -.00000840  00000-0 -37505-4 0  9997","SITE":"AFETR","ECCENTRICITY":"0.00016260","ARG_OF_PERICENTER":"83.3864","EPHEMERIS_TYPE":"0","LAUNCH_DATE":"2020-01-29","CLASSIFICATION_TYPE":"U","REF_FRAME":"TEME","SEMIMAJOR_AXIS":"6925.390","DECAY_DATE":null,"MEAN_ELEMENT_THEORY":"SGP4"},{"COUNTRY_CODE":"US","MEAN_MOTION":"15.06386665","PERIAPSIS":"546.135","TLE_LINE2":"2 45089  53.0537 152.2041 0001616  86.5165 273.6008 15.06386665 98460","INCLINATION":"53.0537","FILE":"3207836","OBJECT_NAME":"STARLINK-1136","ELEMENT_SET_NO":"999","GP_ID":"189213388","TIME_SYSTEM":"UTC","RA_OF_ASC_NODE":"152.2041","NORAD_CAT_ID":"45089","OBJECT_TYPE":"PAYLOAD","APOAPSIS":"548.374","MEAN_ANOMALY":"273.6008","MEAN_MOTION_DDOT":"0.0000000000000","CENTER_NAME":"EARTH","EPOCH":"2021-11-07T20:45:31.540896","BSTAR":"-0.00003613800000","MEAN_MOTION_DOT":"-0.00000820","RCS_SIZE":"LARGE","OBJECT_ID":"2020-006AX","PERIOD":"95.593","REV_AT_EPOCH":"9846","REF_FRAME":"TEME","CLASSIFICATION_TYPE":"U","LAUNCH_DATE":"2020-01-29","ARG_OF_PERICENTER":"86.5165","EPHEMERIS_TYPE":"0","MEAN_ELEMENT_THEORY":"SGP4","DECAY_DATE":null,"SEMIMAJOR_AXIS":"6925.389","SITE":"AFETR","TLE_LINE1":"1 45089U 20006AX  21311.86494839 -.00000820  00000-0 -36138-4 0  9990","ECCENTRICITY":"0.00016160"},{"TLE_LINE1":"1 45090U 20006AY  21311.91286774 -.00001223  00000-0 -63275-4 0  9995","SITE":"AFETR","ECCENTRICITY":"0.00014850","LAUNCH_DATE":"2020-01-29","EPHEMERIS_TYPE":"0","ARG_OF_PERICENTER":"60.8320","REF_FRAME":"TEME","CLASSIFICATION_TYPE":"U","DECAY_DATE":null,"SEMIMAJOR_AXIS":"6925.393","MEAN_ELEMENT_THEORY":"SGP4","CENTER_NAME":"EARTH","MEAN_MOTION_DDOT":"0.0000000000000","BSTAR":"-0.00006327500000","EPOCH":"2021-11-07T21:54:31.772736","OBJECT_TYPE":"PAYLOAD","MEAN_ANOMALY":"299.2818","APOAPSIS":"548.287","PERIOD":"95.593","REV_AT_EPOCH":"9846","RCS_SIZE":"LARGE","MEAN_MOTION_DOT":"-0.00001223","OBJECT_ID":"2020-006AY","TLE_LINE2":"2 45090  53.0538 151.9800 0001485  60.8320 299.2818 15.06385377 98466","MEAN_MOTION":"15.06385377","COUNTRY_CODE":"US","PERIAPSIS":"546.230","TIME_SYSTEM":"UTC","ELEMENT_SET_NO":"999","GP_ID":"189214139","NORAD_CAT_ID":"45090","RA_OF_ASC_NODE":"151.9800","OBJECT_NAME":"STARLINK-1176","FILE":"3207836","INCLINATION":"53.0538"},{"COUNTRY_CODE":"US","MEAN_MOTION":"15.06389076","PERIAPSIS":"546.071","TLE_LINE2":"2 45092  53.0542 152.3992 0001698  75.2225 284.8952 15.06389076 98447","INCLINATION":"53.0542","OBJECT_NAME":"STARLINK-1137","FILE":"3207836","ELEMENT_SET_NO":"999","GP_ID":"189214384","TIME_SYSTEM":"UTC","RA_OF_ASC_NODE":"152.3992","NORAD_CAT_ID":"45092","MEAN_ANOMALY":"284.8952","OBJECT_TYPE":"PAYLOAD","APOAPSIS":"548.423","CENTER_NAME":"EARTH","MEAN_MOTION_DDOT":"0.0000000000000","EPOCH":"2021-11-07T19:41:50.807616","BSTAR":"0.00006820500000","MEAN_MOTION_DOT":"0.00000734","RCS_SIZE":"LARGE","OBJECT_ID":"2020-006BA","PERIOD":"95.593","REV_AT_EPOCH":"9844","REF_FRAME":"TEME","CLASSIFICATION_TYPE":"U","LAUNCH_DATE":"2020-01-29","EPHEMERIS_TYPE":"0","ARG_OF_PERICENTER":"75.2225","MEAN_ELEMENT_THEORY":"SGP4","DECAY_DATE":null,"SEMIMAJOR_AXIS":"6925.382","SITE":"AFETR","TLE_LINE1":"1 45092U 20006BA  21311.82072694  .00000734  00000-0  68205-4 0  9993","ECCENTRICITY":"0.00016980"},{"TLE_LINE2":"2 45093  53.0529 152.4116 0001692  80.3387 279.7793 15.06390287 98444","PERIAPSIS":"546.072","COUNTRY_CODE":"US","MEAN_MOTION":"15.06390287","RA_OF_ASC_NODE":"152.4116","NORAD_CAT_ID":"45093","GP_ID":"189213639","ELEMENT_SET_NO":"999","TIME_SYSTEM":"UTC","INCLINATION":"53.0529","FILE":"3207836","OBJECT_NAME":"STARLINK-1142","BSTAR":"-0.00000507210000","EPOCH":"2021-11-07T19:36:31.627008","MEAN_MOTION_DDOT":"0.0000000000000","CENTER_NAME":"EARTH","OBJECT_TYPE":"PAYLOAD","APOAPSIS":"548.415","MEAN_ANOMALY":"279.7793","REV_AT_EPOCH":"9844","PERIOD":"95.593","OBJECT_ID":"2020-006BB","MEAN_MOTION_DOT":"-0.00000357","RCS_SIZE":"LARGE","EPHEMERIS_TYPE":"0","ARG_OF_PERICENTER":"80.3387","LAUNCH_DATE":"2020-01-29","CLASSIFICATION_TYPE":"U","REF_FRAME":"TEME","SEMIMAJOR_AXIS":"6925.378","DECAY_DATE":null,"MEAN_ELEMENT_THEORY":"SGP4","TLE_LINE1":"1 45093U 20006BB  21311.81703272 -.00000357  00000-0 -50721-5 0  9994","SITE":"AFETR","ECCENTRICITY":"0.00016920"},{"SITE":"AFETR","TLE_LINE1":"1 45094U 20006BC  21311.89812002  .00000121  00000-0  27019-4 0  9995","ECCENTRICITY":"0.00016750","REF_FRAME":"TEME","CLASSIFICATION_TYPE":"U","LAUNCH_DATE":"2020-01-29","ARG_OF_PERICENTER":"79.1135","EPHEMERIS_TYPE":"0","MEAN_ELEMENT_THEORY":"SGP4","DECAY_DATE":null,"SEMIMAJOR_AXIS":"6925.346","MEAN_ANOMALY":"281.0042","OBJECT_TYPE":"PAYLOAD","APOAPSIS":"548.371","MEAN_MOTION_DDOT":"0.0000000000000","CENTER_NAME":"EARTH","EPOCH":"2021-11-07T21:33:17.569728","BSTAR":"0.00002701900000","RCS_SIZE":"LARGE","MEAN_MOTION_DOT":"0.00000121","OBJECT_ID":"2020-006BC","PERIOD":"95.592","REV_AT_EPOCH":"9846","MEAN_MOTION":"15.06400973","COUNTRY_CODE":"US","PERIAPSIS":"546.051","TLE_LINE2":"2 45094  53.0551 152.0322 0001675  79.1135 281.0042 15.06400973 98462","FILE":"3207836","OBJECT_NAME":"STARLINK-1146","INCLINATION":"53.0551","TIME_SYSTEM":"UTC","ELEMENT_SET_NO":"999","GP_ID":"189213889","NORAD_CAT_ID":"45094","RA_OF_ASC_NODE":"152.0322"},{"GP_ID":"189214640","ELEMENT_SET_NO":"999","TIME_SYSTEM":"UTC","RA_OF_ASC_NODE":"152.3325","NORAD_CAT_ID":"45095","INCLINATION":"53.0534","OBJECT_NAME":"STARLINK-1147","FILE":"3207836","TLE_LINE2":"2 45095  53.0534 152.3325 0001303  77.8124 282.3011 15.06379153 98455","COUNTRY_CODE":"US","MEAN_MOTION":"15.06379153","PERIAPSIS":"546.375","PERIOD":"95.593","REV_AT_EPOCH":"9845","MEAN_MOTION_DOT":"-0.00000793","RCS_SIZE":"LARGE","OBJECT_ID":"2020-006BD","MEAN_MOTION_DDOT":"0.0000000000000","CENTER_NAME":"EARTH","EPOCH":"2021-11-07T20:03:04.358304","BSTAR":"-0.00003439700000","OBJECT_TYPE":"PAYLOAD","APOAPSIS":"548.180","MEAN_ANOMALY":"282.3011","DECAY_DATE":null,"SEMIMAJOR_AXIS":"6925.412","MEAN_ELEMENT_THEORY":"SGP4","LAUNCH_DATE":"2020-01-29","ARG_OF_PERICENTER":"77.8124","EPHEMERIS_TYPE":"0","REF_FRAME":"TEME","CLASSIFICATION_TYPE":"U","ECCENTRICITY":"0.00013030","TLE_LINE1":"1 45095U 20006BD  21311.83546711 -.00000793  00000-0 -34397-4 0  9995","SITE":"AFETR"}];
